[{"OBJECT_NAME":"POLYITAN-1","OBJECT_ID":"2014-033AJ","EPOCH":"2026-03-09T22:27:50.258304","MEAN_MOTION":15.29568085,"ECCENTRICITY":0.00093607,"INCLINATION":98.1053,"RA_OF_ASC_NODE":86.0432,"ARG_OF_PERICENTER":127.248,"MEAN_ANOMALY":232.9614,"EPHEMERIS_TYPE":0,"CLASSIFICATION_TYPE":"U","NORAD_CAT_ID":40042,"ELEMENT_SET_NO":999,"REV_AT_EPOCH":63840,"BSTAR":0.00083772474,"MEAN_MOTION_DOT":0.00024003,"MEAN_MOTION_DDOT":0},{"OBJECT_NAME":"STARLINK-31034","OBJECT_ID":"2024-011W","EPOCH":"2026-03-09T18:33:55.872576","MEAN_MOTION":15.30193618,"ECCENTRICITY":0.0001206,"INCLINATION":53.1594,"RA_OF_ASC_NODE":270.9177,"ARG_OF_PERICENTER":74.4404,"MEAN_ANOMALY":285.6729,"EPHEMERIS_TYPE":0,"CLASSIFICATION_TYPE":"U","NORAD_CAT_ID":58785,"ELEMENT_SET_NO":999,"REV_AT_EPOCH":12174,"BSTAR":4.3192856e-5,"MEAN_MOTION_DOT":9.2e-6,"MEAN_MOTION_DDOT":0}]
